[{"OBJECT_NAME":"ONEWEB-0112","OBJECT_ID":"2021-025K","EPOCH":"2026-02-04T06:08:35.392416","MEAN_MOTION":13.13470481,"ECCENTRICITY":0.00016953,"INCLINATION":87.9037,"RA_OF_ASC_NODE":346.6208,"ARG_OF_PERICENTER":88.4822,"MEAN_ANOMALY":271.6501,"EPHEMERIS_TYPE":0,"CLASSIFICATION_TYPE":"U","NORAD_CAT_ID":48051,"ELEMENT_SET_NO":999,"REV_AT_EPOCH":23614,"BSTAR":-7.0004933e-5,"MEAN_MOTION_DOT":-1.3e-7,"MEAN_MOTION_DDOT":0},{"OBJECT_NAME":"ONEWEB-0156","OBJECT_ID":"2021-025L","EPOCH":"2026-02-04T06:20:46.362336","MEAN_MOTION":13.13469402,"ECCENTRICITY":0.0001931,"INCLINATION":87.9036,"RA_OF_ASC_NODE":346.6305,"ARG_OF_PERICENTER":83.2621,"MEAN_ANOMALY":276.8728,"EPHEMERIS_TYPE":0,"CLASSIFICATION_TYPE":"U","NORAD_CAT_ID":48052,"ELEMENT_SET_NO":999,"REV_AT_EPOCH":23612,"BSTAR":-0.00064660447,"MEAN_MOTION_DOT":-2.23e-6,"MEAN_MOTION_DDOT":0},{"OBJECT_NAME":"ONEWEB-0161","OBJECT_ID":"2021-025M","EPOCH":"2026-02-04T07:33:55.575648","MEAN_MOTION":13.13469679,"ECCENTRICITY":0.00019361,"INCLINATION":87.9028,"RA_OF_ASC_NODE":346.6325,"ARG_OF_PERICENTER":84.9728,"MEAN_ANOMALY":275.1622,"EPHEMERIS_TYPE":0,"CLASSIFICATION_TYPE":"U","NORAD_CAT_ID":48053,"ELEMENT_SET_NO":999,"REV_AT_EPOCH":23606,"BSTAR":0.0010169876,"MEAN_MOTION_DOT":3.84e-6,"MEAN_MOTION_DDOT":0},{"OBJECT_NAME":"ONEWEB-0158","OBJECT_ID":"2021-025N","EPOCH":"2026-02-04T06:35:24.512928","MEAN_MOTION":13.13471463,"ECCENTRICITY":0.00014756,"INCLINATION":87.9033,"RA_OF_ASC_NODE":346.628,"ARG_OF_PERICENTER":74.1438,"MEAN_ANOMALY":285.9854,"EPHEMERIS_TYPE":0,"CLASSIFICATION_TYPE":"U","NORAD_CAT_ID":48054,"ELEMENT_SET_NO":999,"REV_AT_EPOCH":23618,"BSTAR":-0.00077921909,"MEAN_MOTION_DOT":-2.72e-6,"MEAN_MOTION_DDOT":0},{"OBJECT_NAME":"ONEWEB-0157","OBJECT_ID":"2021-025P","EPOCH":"2026-02-04T07:11:58.517376","MEAN_MOTION":13.13471659,"ECCENTRICITY":0.00019809,"INCLINATION":87.9031,"RA_OF_ASC_NODE":346.6286,"ARG_OF_PERICENTER":92.0967,"MEAN_ANOMALY":268.0389,"EPHEMERIS_TYPE":0,"CLASSIFICATION_TYPE":"U","NORAD_CAT_ID":48055,"ELEMENT_SET_NO":999,"REV_AT_EPOCH":23612,"BSTAR":0.00069732394,"MEAN_MOTION_DOT":2.67e-6,"MEAN_MOTION_DDOT":0},{"OBJECT_NAME":"ONEWEB-0162","OBJECT_ID":"2021-025Q","EPOCH":"2026-02-04T06:37:39.182016","MEAN_MOTION":13.13470208,"ECCENTRICITY":0.00019001,"INCLINATION":87.9033,"RA_OF_ASC_NODE":346.6371,"ARG_OF_PERICENTER":79.0968,"MEAN_ANOMALY":281.0374,"EPHEMERIS_TYPE":0,"CLASSIFICATION_TYPE":"U","NORAD_CAT_ID":48056,"ELEMENT_SET_NO":999,"REV_AT_EPOCH":23609,"BSTAR":-0.00084303634,"MEAN_MOTION_DOT":-2.95e-6,"MEAN_MOTION_DDOT":0},{"OBJECT_NAME":"ONEWEB-0155","OBJECT_ID":"2021-025R","EPOCH":"2026-02-04T06:47:35.359296","MEAN_MOTION":13.13469651,"ECCENTRICITY":0.0001815,"INCLINATION":87.9023,"RA_OF_ASC_NODE":346.6373,"ARG_OF_PERICENTER":86.4616,"MEAN_ANOMALY":273.6721,"EPHEMERIS_TYPE":0,"CLASSIFICATION_TYPE":"U","NORAD_CAT_ID":48057,"ELEMENT_SET_NO":999,"REV_AT_EPOCH":23623,"BSTAR":-0.00020338764,"MEAN_MOTION_DOT":-6.2e-7,"MEAN_MOTION_DDOT":0},{"OBJECT_NAME":"ONEWEB-0149","OBJECT_ID":"2021-025S","EPOCH":"2026-02-04T07:19:17.908032","MEAN_MOTION":13.13471314,"ECCENTRICITY":0.0002013,"INCLINATION":87.9031,"RA_OF_ASC_NODE":346.6279,"ARG_OF_PERICENTER":78.9398,"MEAN_ANOMALY":281.1957,"EPHEMERIS_TYPE":0,"CLASSIFICATION_TYPE":"U","NORAD_CAT_ID":48058,"ELEMENT_SET_NO":999,"REV_AT_EPOCH":23604,"BSTAR":0.00098879661,"MEAN_MOTION_DOT":3.74e-6,"MEAN_MOTION_DDOT":0},{"OBJECT_NAME":"ONEWEB-0148","OBJECT_ID":"2021-025T","EPOCH":"2026-02-04T06:25:39.552960","MEAN_MOTION":13.13471186,"ECCENTRICITY":0.00024338,"INCLINATION":87.9028,"RA_OF_ASC_NODE":346.6517,"ARG_OF_PERICENTER":80.3337,"MEAN_ANOMALY":279.8067,"EPHEMERIS_TYPE":0,"CLASSIFICATION_TYPE":"U","NORAD_CAT_ID":48059,"ELEMENT_SET_NO":999,"REV_AT_EPOCH":23616,"BSTAR":-0.00072030967,"MEAN_MOTION_DOT":-2.5e-6,"MEAN_MOTION_DDOT":0},{"OBJECT_NAME":"ONEWEB-0160","OBJECT_ID":"2021-025U","EPOCH":"2026-02-04T06:50:01.662144","MEAN_MOTION":13.13471786,"ECCENTRICITY":0.00015207,"INCLINATION":87.9022,"RA_OF_ASC_NODE":346.6457,"ARG_OF_PERICENTER":54.9724,"MEAN_ANOMALY":305.1548,"EPHEMERIS_TYPE":0,"CLASSIFICATION_TYPE":"U","NORAD_CAT_ID":48060,"ELEMENT_SET_NO":999,"REV_AT_EPOCH":23611,"BSTAR":-0.00037311651,"MEAN_MOTION_DOT":-1.24e-6,"MEAN_MOTION_DDOT":0},{"OBJECT_NAME":"ONEWEB-0163","OBJECT_ID":"2021-025V","EPOCH":"2026-02-04T06:28:05.549952","MEAN_MOTION":13.13469858,"ECCENTRICITY":0.00019196,"INCLINATION":87.9033,"RA_OF_ASC_NODE":346.6389,"ARG_OF_PERICENTER":89.4969,"MEAN_ANOMALY":270.638,"EPHEMERIS_TYPE":0,"CLASSIFICATION_TYPE":"U","NORAD_CAT_ID":48061,"ELEMENT_SET_NO":999,"REV_AT_EPOCH":23623,"BSTAR":-0.00062565542,"MEAN_MOTION_DOT":-2.16e-6,"MEAN_MOTION_DDOT":0},{"OBJECT_NAME":"ONEWEB-0159","OBJECT_ID":"2021-025W","EPOCH":"2026-02-04T06:15:54.723456","MEAN_MOTION":13.13470623,"ECCENTRICITY":0.00020466,"INCLINATION":87.9038,"RA_OF_ASC_NODE":346.6248,"ARG_OF_PERICENTER":88.9098,"MEAN_ANOMALY":271.2266,"EPHEMERIS_TYPE":0,"CLASSIFICATION_TYPE":"U","NORAD_CAT_ID":48062,"ELEMENT_SET_NO":999,"REV_AT_EPOCH":23615,"BSTAR":-0.00033339255,"MEAN_MOTION_DOT":-1.09e-6,"MEAN_MOTION_DDOT":0},{"OBJECT_NAME":"ONEWEB-0164","OBJECT_ID":"2021-025X","EPOCH":"2026-02-04T07:38:46.890528","MEAN_MOTION":13.13468768,"ECCENTRICITY":0.00017266,"INCLINATION":87.9036,"RA_OF_ASC_NODE":346.6203,"ARG_OF_PERICENTER":79.4967,"MEAN_ANOMALY":280.6357,"EPHEMERIS_TYPE":0,"CLASSIFICATION_TYPE":"U","NORAD_CAT_ID":48063,"ELEMENT_SET_NO":999,"REV_AT_EPOCH":23614,"BSTAR":0.00083020004,"MEAN_MOTION_DOT":3.16e-6,"MEAN_MOTION_DDOT":0},{"OBJECT_NAME":"ONEWEB-0167","OBJECT_ID":"2021-025Y","EPOCH":"2026-02-04T06:29:17.651616","MEAN_MOTION":13.13468652,"ECCENTRICITY":0.00015051,"INCLINATION":87.9023,"RA_OF_ASC_NODE":346.6525,"ARG_OF_PERICENTER":103.9347,"MEAN_ANOMALY":256.195,"EPHEMERIS_TYPE":0,"CLASSIFICATION_TYPE":"U","NORAD_CAT_ID":48064,"ELEMENT_SET_NO":999,"REV_AT_EPOCH":23612,"BSTAR":-0.00086402446,"MEAN_MOTION_DOT":-3.03e-6,"MEAN_MOTION_DDOT":0},{"OBJECT_NAME":"ONEWEB-0166","OBJECT_ID":"2021-025Z","EPOCH":"2026-02-04T07:02:13.387200","MEAN_MOTION":13.13471607,"ECCENTRICITY":0.00020276,"INCLINATION":87.9034,"RA_OF_ASC_NODE":346.6081,"ARG_OF_PERICENTER":81.1525,"MEAN_ANOMALY":278.9834,"EPHEMERIS_TYPE":0,"CLASSIFICATION_TYPE":"U","NORAD_CAT_ID":48065,"ELEMENT_SET_NO":999,"REV_AT_EPOCH":23620,"BSTAR":0.0003168992,"MEAN_MOTION_DOT":1.28e-6,"MEAN_MOTION_DDOT":0},{"OBJECT_NAME":"ONEWEB-0151","OBJECT_ID":"2021-025AA","EPOCH":"2026-02-04T07:04:40.116000","MEAN_MOTION":13.13471007,"ECCENTRICITY":0.00016762,"INCLINATION":87.9033,"RA_OF_ASC_NODE":346.635,"ARG_OF_PERICENTER":83.3028,"MEAN_ANOMALY":276.8292,"EPHEMERIS_TYPE":0,"CLASSIFICATION_TYPE":"U","NORAD_CAT_ID":48066,"ELEMENT_SET_NO":999,"REV_AT_EPOCH":23614,"BSTAR":0.00037498966,"MEAN_MOTION_DOT":1.5e-6,"MEAN_MOTION_DDOT":0}]
