ONEWEB-0112             
1 48051U 21025K   26035.25596519 -.00000013  00000+0 -70005-4 0  9997
2 48051  87.9037 346.6208 0001695  88.4822 271.6501 13.13470481236146
ONEWEB-0156             
1 48052U 21025L   26035.26442549 -.00000223  00000+0 -64660-3 0  9994
2 48052  87.9036 346.6305 0001931  83.2621 276.8728 13.13469402236124
ONEWEB-0161             
1 48053U 21025M   26035.31522657  .00000384  00000+0  10170-2 0  9992
2 48053  87.9028 346.6325 0001936  84.9728 275.1622 13.13469679236063
ONEWEB-0158             
1 48054U 21025N   26035.27458927 -.00000272  00000+0 -77922-3 0  9993
2 48054  87.9033 346.6280 0001475  74.1438 285.9854 13.13471463236180
ONEWEB-0157             
1 48055U 21025P   26035.29998284  .00000267  00000+0  69732-3 0  9993
2 48055  87.9031 346.6286 0001980  92.0967 268.0389 13.13471659236128
ONEWEB-0162             
1 48056U 21025Q   26035.27614794 -.00000295  00000+0 -84304-3 0  9998
2 48056  87.9033 346.6371 0001900  79.0968 281.0374 13.13470208236098
ONEWEB-0155             
1 48057U 21025R   26035.28304814 -.00000062  00000+0 -20339-3 0  9999
2 48057  87.9023 346.6373 0001815  86.4616 273.6721 13.13469651236236
ONEWEB-0149             
1 48058U 21025S   26035.30506838  .00000374  00000+0  98880-3 0  9993
2 48058  87.9031 346.6279 0002013  78.9398 281.1957 13.13471314236048
ONEWEB-0148             
1 48059U 21025T   26035.26781890 -.00000250  00000+0 -72031-3 0  9997
2 48059  87.9028 346.6517 0002433  80.3337 279.8067 13.13471186236162
ONEWEB-0160             
1 48060U 21025U   26035.28474146 -.00000124  00000+0 -37312-3 0  9997
2 48060  87.9022 346.6457 0001520  54.9724 305.1548 13.13471786236112
ONEWEB-0163             
1 48061U 21025V   26035.26950868 -.00000216  00000+0 -62566-3 0  9997
2 48061  87.9033 346.6389 0001919  89.4969 270.6380 13.13469858236235
ONEWEB-0159             
1 48062U 21025W   26035.26105004 -.00000109  00000+0 -33339-3 0  9999
2 48062  87.9038 346.6248 0002046  88.9098 271.2266 13.13470623236157
ONEWEB-0164             
1 48063U 21025X   26035.31859827  .00000316  00000+0  83020-3 0  9995
2 48063  87.9036 346.6203 0001726  79.4967 280.6357 13.13468768236142
ONEWEB-0167             
1 48064U 21025Y   26035.27034319 -.00000303  00000+0 -86402-3 0  9997
2 48064  87.9023 346.6525 0001505 103.9347 256.1950 13.13468652236123
ONEWEB-0166             
1 48065U 21025Z   26035.29321050  .00000128  00000+0  31690-3 0  9993
2 48065  87.9034 346.6081 0002027  81.1525 278.9834 13.13471607236204
ONEWEB-0151             
1 48066U 21025AA  26035.29490875  .00000150  00000+0  37499-3 0  9994
2 48066  87.9033 346.6350 0001676  83.3028 276.8292 13.13471007236146
